#dP2019  8  6  0  0  0.00000000      96 __u+U ITR00 FIT  IAC
## 2065 172800.00000000   900.00000000 58701 0.0000000000000
+   97   C01C02C03C04C06C07C08C09C10C11C12C13C14C16E01E02E03
+        E04E05E07E08E09E11E12E13E14E15E18E19E21E24E25E26E27
+        E30E31E33E36G01G02G03G04G05G06G07G08G09G10G11G12G13
+        G14G15G16G17G18G19G20G21G22G23G24G25G26G27G28G29G30
+        G31G32J01J02J03J07R01R02R03R04R05R07R08R09R11R12R13
+        R14R15R16R17R18R19R20R21R22R23R24R26  0  0  0  0  0
++        13 13 13  0  9  9  9  9  8  8  8  8  8  9  5  5  5
++         5  5  5  5  5  5  6  5  5  5  5  6  5  5  5  5  5
++         5  5  5  5  4  4  4  4  3  3  4  3  4  3  4  3  4
++         4  3  3  4  3  4  3  3  3  4  3  3  3  3  3  3  4
++         3  4  9 10 10 14  5  5  5  5  5  5  5  6  6  6  6
++         5  5  6  5  5  6  6  5  5  5  6  0  0  0  0  0  0
%c M  cc GPS ccc cccc cccc cccc cccc ccccc ccccc ccccc ccccc
%c cc cc ccc ccc cccc cccc cccc cccc ccccc ccccc ccccc ccccc
%f  0.0000000  0.000000000  0.00000000000  0.000000000000000
%f  0.0000000  0.000000000  0.00000000000  0.000000000000000
%i    0    0    0    0      0      0      0      0         0
%i    0    0    0    0      0      0      0      0         0
/*                                                          
/*   RSA / INFORMATION & ANALYSIS CENTER (IAC) OF MCC       
/*   ULTRA-RAPID DETERMINATION                              
/* PCV:IGS14_2056 OL/AL:FES2004  NONE     YN ORB:CoN CLK:CoN
*  2019 08 06 18 30  0.00000000
PC01 -32292.129401  27132.100838    180.491075    224.672066
PC02   4462.726186  41909.869711   -726.799620    -11.962793
PC03 -14692.188913  39514.456116   -634.023056   -261.398296
PC04      0.000000      0.000000      0.000000 999999.999999
PC06 -21705.912360  34338.587035  10929.987813    493.472101
PC07  -7831.293250  33795.252713  24448.841668    -49.375245
PC08 -15711.270783  18041.056848 -34698.439358    167.298093
PC09 -11378.370798  33630.967120  22712.431164   -129.632395
PC10   2948.066984  39738.882404  14569.710472    -56.794917
PC11 -21976.003052  -2437.904639  17113.281248    227.833309
PC12   4806.126147 -17619.323007  21131.201875    931.950879
PC13   -975.515239  23377.288807 -35008.075898   -893.773381
PC14 -10057.398251 -20046.545767 -16564.782061    514.968899
PC16 -20686.525750  34676.283685  11893.285344   -879.853879
PE01 -15289.101705   6165.758333  24587.997772   -663.005751
PE02  15254.981185  -6220.369490 -24588.023513     72.738283
PE03  20145.468782 -16559.965223  13993.021617   -196.604287
PE04 -11359.809072  27059.169446   3893.422068   -338.969761
PE05  17190.354114   3727.052004  23813.225703   -459.827138
PE07  -4200.487390 -21716.526177 -19652.573351   -241.088363
PE08  11092.911827 -27138.142983  -4008.878701   6311.946463
PE09   4294.794361  21623.663779  19771.650222   6355.879230
PE11  12777.509556  14412.487275 -22490.630900   5632.891658
PE12 -10322.649954  15666.019587 -22894.504298   6261.238607
PE13 -12692.312920 -14315.890259  22585.204992    391.058172
PE14 -15626.122248  22858.954248  -9407.853921   -671.416821
PE15   9866.394429 -15707.776469  23068.001821    900.378189
PE18  23509.686264 -14841.142108  -3656.227673   -766.451519
PE19 -20299.321196  14896.699187 -15554.955745     -4.709276
PE21 -20895.758358 -13975.394527  15620.770564   -548.078198
PE24  14147.500946  25891.912754   2311.467407   5937.870395
PE25  20895.165241  14065.767925 -15547.559462   1719.100949
PE26 -27884.931184  -4749.552548   8731.381111   4254.234574
PE27 -14160.739776 -25864.301256  -2538.660901    413.622354
PE30    912.814207 -22638.995814 -19051.332164   4650.192466
PE31   -871.518741  22549.813852  19172.638522   -467.118786
PE33 -26701.828642   7898.542793 -10036.061520   -469.825617
PE36  27877.929892   4528.811388  -8860.997236    678.144083
PG01  19851.917919  14104.454425 -11178.248023    -88.865079
PG02    554.478017 -15816.161600  21955.026118   -277.053011
PG03  13100.452791  19781.595692  11983.246402      0.368200
PG04 -11201.681091  22234.804481  -8707.513266     64.656489
PG05  -1677.785896 -25498.670605   6711.776542     -0.437214
PG06  16412.838724  -8537.183172  19108.041658    -16.774631
PG07  25904.249825   6291.799515  -2708.115240    -79.758062
PG08   4169.405918  15808.832319 -20860.691715     -1.660992
PG09  20016.720031  -2187.360644  17283.154211    353.927717
PG10 -12908.899025   9328.518461 -21158.982547     -4.592709
PG11  16557.521553  11406.157883 -17754.604031   -542.071904
PG12 -10005.020328 -22745.006994   9390.874913    216.645442
PG13   6993.108822 -19386.711714 -16830.900722    -50.995680
PG14 -17830.042506  18915.246684   5282.709053    -67.884404
PG15  -6657.891390 -15709.932583 -20548.469205   -295.931598
PG16  -1230.742096  25267.281869   7131.411137    -62.688286
PG17  21214.476692 -15645.983270  -2435.900366    102.064588
PG18  12186.400714  16072.514813 -17842.975174     75.791925
PG19  19804.833355 -17455.071414   2828.270567   -284.384859
PG20 -16649.892818   -477.655326 -20817.982254    526.332776
PG21 -25435.134477  -1408.435795  -6392.471775   -141.103803
PG22  11305.374372  23603.245501   5034.988481   -740.659510
PG23  12443.898170   9825.773495  21672.164842   -173.549056
PG24 -18076.323133 -14574.956788 -13352.427901     -0.416479
PG25 -15495.370106 -10979.350682  18460.225982     -5.819732
PG26  -6572.293745  20064.902466  15985.078165      8.794139
PG27  -8438.488689  20841.229010 -14009.030215    -16.045160
PG28  12894.273444  -8805.946708 -20901.776018    765.252336
PG29 -18142.482307  -1676.383096  19296.499114    131.889904
PG30  23177.380952  -1911.120655 -12978.350192    -14.243781
PG31 -15382.203718   9368.794824  19658.991494     19.158482
PG32 -20655.388079  16210.809634  -3467.486486      8.979647
PJ01 -20564.559370  30945.699559 -15358.829807   -262.758024
PJ02 -25455.287277  20865.286398  31163.413868     -2.042096
PJ03 -34831.879549  23686.071606   1555.098734     -0.355767
PJ07 -25364.885416  33689.284078      1.399748     -0.045723
PR01  -7646.361624  24180.322382  -2821.797444     47.772027
PR02   2802.522441  19164.409440  16610.538230    381.976187
PR03  10673.914770   2632.464572  23059.582778     -0.467035
PR04  12177.466394 -15919.935636  15805.694898    316.679172
PR05   6912.691703 -24562.790802    309.147558     33.334843
PR07 -10770.784945  -2136.386785 -22985.870105    -24.634549
PR08 -12268.858602  15267.077726 -16282.803538     16.328129
PR09 -16575.619028 -19072.914366  -3176.506225     84.009276
PR11 -11642.163171   3590.843302  22422.263025    -75.139048
PR12   2139.695432  15638.764753  20064.924241     50.406935
PR13  15734.284085  19313.244607   5503.709196    -26.816824
PR14  19368.578587  11763.610753 -11715.663355     41.686191
PR15  12153.061705  -2628.454794 -22247.699904    103.413998
PR16  -2550.069200 -15880.937914 -19853.303111      6.495205
PR17  22270.732032    176.281472 -12395.417657    249.750563
PR18  23829.363253  -8075.563366   4365.506313      2.910015
PR19  12882.327250 -11580.285505  18714.844443    -46.647439
PR20  -7630.891112  -8698.045424  22727.690170   -386.611779
PR21 -22637.558425    240.344904  11778.152165    -64.370046
PR22 -22700.661728   8983.457374  -7185.294731    -31.866537
PR23  -7055.132034  11760.842761 -21522.089954    245.564540
PR24   9825.900274   7863.747466 -22220.226730   -183.411030
PR26      0.000000      0.000000      0.000000 999999.999999
EOF
